{"type":"Topology","bbox":[-123.2242362683808,49.19854050165266,-123.02295193556583,49.31408410460529],"transform":{"scale":[2.0128433281497847e-07,1.1554360295263422e-07],"translate":[-123.2242362683808,49.19854050165266]},"objects":{"chsa":{"type":"GeometryCollection","geometries":[{"type":"Polygon","id":"3211","properties":{"CHSA_CODE":"3211","CHSA_NAME":"Downtown Vancouver"},"arcs":[[0]]},{"type":"Polygon","id":"3212","properties":{"CHSA_CODE":"3212","CHSA_NAME":"West End"},"arcs":[[1]]},{"type":"Polygon","id":"3263","properties":{"CHSA_CODE":"3263","CHSA_NAME":"Sunset"},"arcs":[[2]]},{"type":"Polygon","id":"3264","properties":{"CHSA_CODE":"3264","CHSA_NAME":"Victoria-Fraserview"},"arcs":[[3]]},{"type":"Polygon","id":"3213","properties":{"CHSA_CODE":"3213","CHSA_NAME":"Fairview"},"arcs":[[4]]},{"type":"Polygon","id":"3221","properties":{"CHSA_CODE":"3221","CHSA_NAME":"Downtown Eastside"},"arcs":[[5]]},{"type":"Polygon","id":"3222","properties":{"CHSA_CODE":"3222","CHSA_NAME":"Northeast False Creek"},"arcs":[[6]]},{"type":"Polygon","id":"3223","properties":{"CHSA_CODE":"3223","CHSA_NAME":"Grandview-Woodland"},"arcs":[[7]]},{"type":"Polygon","id":"3231","properties":{"CHSA_CODE":"3231","CHSA_NAME":"Cedar Cottage"},"arcs":[[8]]},{"type":"Polygon","id":"3232","properties":{"CHSA_CODE":"3232","CHSA_NAME":"Hastings-Sunrise"},"arcs":[[9]]},{"type":"Polygon","id":"3233","properties":{"CHSA_CODE":"3233","CHSA_NAME":"Renfrew-Collingwood"},"arcs":[[10]]},{"type":"Polygon","id":"3241","properties":{"CHSA_CODE":"3241","CHSA_NAME":"Shaughnessy/Arbutus Ridge/Kerrisdale"},"arcs":[[11]]},{"type":"Polygon","id":"3242","properties":{"CHSA_CODE":"3242","CHSA_NAME":"West Point Grey/Dunbar-Southlands"},"arcs":[[12]]},{"type":"Polygon","id":"3244","properties":{"CHSA_CODE":"3244","CHSA_NAME":"Kitsilano"},"arcs":[[13]]},{"type":"Polygon","id":"3251","properties":{"CHSA_CODE":"3251","CHSA_NAME":"Kensington"},"arcs":[[14]]},{"type":"Polygon","id":"3252","properties":{"CHSA_CODE":"3252","CHSA_NAME":"Mount Pleasant"},"arcs":[[15]]},{"type":"Polygon","id":"3253","properties":{"CHSA_CODE":"3253","CHSA_NAME":"South Cambie/Riley Park"},"arcs":[[16]]},{"type":"Polygon","id":"3261","properties":{"CHSA_CODE":"3261","CHSA_NAME":"Killarney"},"arcs":[[17]]},{"type":"Polygon","id":"3262","properties":{"CHSA_CODE":"3262","CHSA_NAME":"Oakridge/Marpole"},"arcs":[[18]]}]}},"arcs":[[[535389,640488],[-1070,8],[-624,148],[-136,1873],[-6075,62],[-4,-777],[4710,13],[9,-3193],[-475,74],[-9,2724],[-1573,0],[-195,-2256],[-475,74],[-10,2256],[-1768,0],[3,-4203],[-681,-161],[-413,2022],[-553,0],[1,2724],[-1507,0],[-204,-2181],[6,2107],[-1095,0],[5,-1479],[-551,74],[0,1627],[-888,234],[-265,-319],[-900,-1086],[273,-1553],[-743,-1479],[413,-395],[879,1097],[-811,-1319],[478,-394],[818,776],[345,-308],[-893,-936],[550,-543],[813,863],[-537,-1245],[339,-555],[683,863],[409,-308],[-4299,-4992],[751,-1084],[-60,-1480],[-888,-1023],[-950,-850],[-2466,850],[-656,-591],[-2203,-1985],[-2060,1627],[-2453,-702],[-2945,2169],[-4498,-5093],[-1631,-1847],[-3010,543],[-406,1479],[-1440,308],[-481,1479],[-1703,0],[-3687,-3353],[-1910,1787],[-4782,531],[-3221,2255],[-666,843],[-6034,7625],[-2733,-2255],[-1294,-12],[-615,1171],[546,1170],[-3829,3648],[-71,1246],[743,1011],[-813,1096],[-3076,-320],[-1778,1862],[-2731,702],[-588,664],[-307,347],[-113,279],[-985,2432],[-2599,3267],[337,3352],[-482,617],[-1606,-1861],[-2216,2478],[-1985,0],[1295,1872],[-1570,75],[-580,897],[-169,262],[-345,3192],[-2605,4906],[1701,2021],[-1225,469],[-3755,-1406],[-794,711],[-238,214],[-130,263],[9789,5483],[60,36],[4918,2884],[856,482],[1930,1088],[922,776],[636,594],[555,247],[2047,2346],[2329,2667],[2790,3184],[2475,2793],[1294,1465],[1610,1823],[2587,2928],[2657,3083],[110,126],[4974,5771],[992,1151],[958,1112],[763,886],[2752,3296],[2418,2895],[3017,3371],[2294,2565],[2715,2984],[5279,6004],[2762,3140],[2934,3290],[860,965],[1860,2086],[2826,3415],[-10110,11376],[-10921,12223],[-7668,8657],[-6711,7522],[-5851,6741],[-3351,3865],[-2586,2982],[-7537,8923],[-7971,8804],[1381,1640],[1720,2043],[1561,1850],[1327,1571],[-299,269],[599,788],[444,538],[526,-526],[108,-2],[1565,-2073],[2212,-1963],[765,-72],[614,-542],[616,-780],[1257,-1016],[1239,-1628],[2666,3151],[-494,602],[2316,2309],[2040,548],[844,-357],[737,-1070],[895,-753],[3215,-1935],[918,-770],[786,-880],[-52,-942],[-575,-868],[-699,-499],[-281,-790],[-66,-761],[-324,-1065],[-538,-902],[-588,-648],[-1242,-1185],[-606,-1286],[495,-267],[698,973],[1244,-1355],[-744,-1124],[627,-1662],[1021,1122],[1329,-561],[3916,-4591],[858,564],[2093,-2241],[1158,-863],[3373,-658],[2217,-565],[1383,2],[1281,403],[2124,1236],[1307,937],[1125,-2],[1963,-1403],[1186,-905],[2363,-1167],[1049,-209],[3066,-47],[938,-560],[1982,-1455],[764,-329],[631,-601],[324,-521],[4464,1],[1329,-1750],[3489,891],[-4,-595],[-1173,-561],[2,-892],[1297,-320],[1152,-531],[3068,12],[1886,576],[1532,-26],[2830,-534],[1352,-7],[2834,1485],[1895,1621],[204,312],[671,-1135],[-2141,-1473],[1956,-2258],[2703,1436],[997,281],[969,-33],[138,-801],[-2298,-1469],[-2508,-2023],[676,-1154],[-679,-595],[-1025,1129],[-3942,-2547],[4922,-2292],[4710,-2629],[3062,2130],[16610,10261],[3167,-1356],[4489,-2086],[-40,-883],[-14328,-8879],[-5193,-3512],[6292,-4027],[-131,-871],[3125,-2034],[5459,3466],[344,-853],[2804,2009],[337,-859],[-1663,-1155],[151,-297],[313,277],[1838,874],[348,-259],[1143,557],[334,-294],[189,-694],[-1025,-724],[195,-299],[-2349,-1452],[185,-562],[1672,1155],[154,-303],[334,-852],[-2688,-1651],[36,-659],[-648,-609],[2543,-1192],[1458,445],[-744,-2027],[152,-1966],[147,-1912],[133,-1717],[141,-1828],[146,-1891],[261,-2791],[-732,-2890],[-10276,3396],[-137,45],[-2555,-2977],[-2361,-2750],[-2589,-2973],[-2161,-2481],[-2500,-2873],[-5403,-6206],[-8625,-9991],[2190,-2466],[2707,-3047],[4718,-5528],[4862,-5332],[-8373,-9620],[-1128,-1261],[-1161,-1298],[-5782,-6459],[-188,-490],[-6346,-7773],[-171,-951],[-471,-579],[-442,-532],[-5382,-11732],[1653,1],[6720,-1443],[2124,-2258],[-1005,-6743],[331,-446],[3832,-7113]],[[456356,823011],[-444,-538],[-599,-788],[299,-269],[-1327,-1571],[-1561,-1850],[-1720,-2043],[-1381,-1640],[7971,-8804],[7537,-8923],[2586,-2982],[3351,-3865],[5851,-6741],[6711,-7522],[7668,-8657],[10921,-12223],[10110,-11376],[-2826,-3415],[-1860,-2086],[-860,-965],[-2934,-3290],[-2762,-3140],[-5279,-6004],[-2715,-2984],[-2294,-2565],[-3017,-3371],[-2418,-2895],[-2752,-3296],[-763,-886],[-958,-1112],[-992,-1151],[-4974,-5771],[-110,-126],[-2657,-3083],[-2587,-2928],[-1610,-1823],[-1294,-1465],[-2475,-2793],[-2790,-3184],[-2329,-2667],[-2047,-2346],[-555,-247],[-636,-594],[-922,-776],[-1930,-1088],[-856,-482],[-4918,-2884],[-60,-36],[-9789,-5483],[-483,982],[238,1526],[29,187],[-109,430],[-480,1900],[-159,628],[-16,4598],[-588,363],[-1669,1030],[-206,398],[-2457,4730],[-1501,-148],[-743,568],[-1383,1059],[-1436,4437],[-1518,2951],[-366,713],[-113,219],[-4912,6359],[-135,174],[-342,443],[-1615,2091],[-1404,1817],[-1102,2872],[-340,2078],[-75,459],[-283,1726],[-5,32],[-126,771],[-3702,5904],[-610,1496],[-126,310],[-398,975],[-858,2101],[-457,1120],[-1851,4537],[-631,1546],[-795,1949],[-9,21],[-1598,3917],[-448,469],[-1459,1528],[-1742,1826],[-139,145],[-242,254],[-488,511],[1,1331],[959,1763],[396,727],[261,7714],[53,1586],[43,1273],[192,5682],[28,830],[15,428],[56,1653],[3,98],[7,199],[2,357],[51,7816],[-903,4979],[-4240,5288],[-1040,694],[-985,657],[-1467,979],[-3658,3259],[-2078,1851],[-282,251],[-175,-100],[-3242,-1859],[-821,1171],[-477,3426],[-2538,5288],[-8019,11266],[-2669,5288],[-92,11291],[-1095,4659],[-1242,2577],[-5262,3957],[-2396,-1258],[-1435,-73],[-1908,1700],[-2957,10428],[-5074,8394],[-1441,74],[-6341,-2810],[-3077,148],[-5413,3796],[-818,1085],[-1921,5756],[-417,3279],[600,9959],[-1314,5289],[-1510,2958],[-2,561],[-2,758],[1913,2107],[4776,2269],[2186,4141],[926,13460],[1422,9121],[531,9886],[1416,7704],[255,12535],[536,2811],[820,1085],[7443,4388],[2527,3426],[5044,3821],[1088,2971],[131,5362],[1087,2502],[3410,4203],[1008,808],[8348,6687],[5807,801],[7033,2896],[6087,1492],[4637,2971],[5601,1799],[12443,2046],[813,-468],[970,-3883],[1024,-1553],[1330,-284],[1957,-418],[1979,-1787],[1993,-3341],[2674,-7544],[5418,-7149],[5748,-10194],[1517,-5830],[3163,-8172],[768,-10354],[1641,-1787],[9167,-5732],[5542,-7396],[1507,-1232],[760,-1331],[340,-4277],[2468,-4278],[1241,-4277],[3138,-925],[4451,-5448],[1028,-542],[8751,-1615],[4438,1566],[955,-235],[4937,-8011],[5476,-5597],[5403,-4190],[10048,-5584],[6359,-1627],[4856,86],[2183,1800],[3747,5694],[2252,1713],[2240,-207],[288,-27],[1924,-3414],[-10,-141],[-1125,-16758],[-404,-1586],[-622,-1224],[-1010,-1196],[-1267,-894],[-2170,-619],[-5528,-28],[-2345,-142],[-1967,-385],[-1587,150],[-2016,1517],[-1159,929],[-1445,1148],[-831,433],[-1788,-281],[-1056,-1243],[-1301,-2073],[-862,-1327],[-641,-748],[-978,-571],[-1721,-292],[-989,0],[-1292,-448],[-713,-1279],[-276,-2077],[161,-3913],[1057,-1286],[1137,-327],[1418,-539],[925,-184],[1771,-1298],[1529,-928],[1520,-691],[714,-1154],[147,-1193],[-33,-1416],[-602,-2908],[-1237,-1914],[-1071,-2660],[-986,-1700],[-963,-1228],[-1493,-1839],[-1648,-1138],[-3041,-1020],[-1561,-25],[-1959,1275],[-1265,1599],[-52,1924],[718,1126],[779,678],[760,1042],[584,1988],[-212,7161],[546,3501],[23,5935],[-340,1739],[-3,3759],[-981,855],[-1477,300],[-3488,2],[-2673,-1169],[-2952,-2608],[-805,-830],[-849,-1171],[-662,-1374],[-669,-1202],[-487,-1454],[-840,-1459],[-495,-1417],[-680,-1152],[-810,-905],[-315,-243],[-950,-291],[-1368,-606],[-1672,596],[-834,863],[-939,1092],[-863,898],[-824,1141],[-859,1186],[-644,1158],[-989,2904],[-680,1131],[-484,1422],[-642,1461],[-1031,871],[-1469,295],[-1493,-297],[-1174,-556],[-970,-1142],[-869,-926],[-969,-845],[-837,-1157],[-1978,-1715],[-1308,-590],[-2647,1152],[-1490,293],[-1847,9],[-1336,-565],[-649,-1152],[-2159,-296],[192,-859],[-2657,-1],[-884,-1282],[-619,-1315],[-647,-1158],[-991,-3188],[-339,-1442],[-3,-1992],[487,-1453],[1331,-23],[2651,1156],[177,-18],[2483,-2292],[2475,-2634],[328,-1396],[-332,-842],[191,-899],[470,-843],[2330,-1747],[836,-1158],[1619,-1708],[688,-1156],[674,-627]],[[719813,295904],[224,-416],[4362,-105],[3234,-81],[3444,-86],[-59,-2897],[-291,-14331],[-4,-14268],[-498,-11709],[-337,-16135],[-92,-4404],[-84,-3538],[-308,-12995],[-375,-13587],[-192,-11896],[202,-3356],[12,-186],[1004,-3727],[1023,-4329],[63,-8243],[48,-7557],[-32,-3567],[-36,-3977],[-34,-4042],[-32,-3829],[-36,-3489],[-39,-3875],[-39,-3598],[-41,-3883],[-58,-7638],[-3,-1285],[-14,-4483],[-3,-1168],[-9,-4835],[521,-477],[-40,-1284],[-55,-1534],[-37,-1012],[-49,-1369],[-33,-1005],[-325,-9732],[-42,-1283],[-31,-856],[-34,-976],[-4,-114],[-208,-5958],[-137,-3935],[-17029,-6140],[-13377,-5245],[-26364,-8701],[-15406,-4740],[-8491,-3532],[-695,-121],[-21408,-5479],[-10633,-1309],[-7547,443],[-3546,5779],[-913,1489],[-61,2157],[215,15543],[24,1319],[18,987],[-12834,-1888],[-9192,-1353],[642,22329],[730,24603],[12,452],[12,427],[180,4404],[151,3705],[357,7702],[268,7471],[723,7436],[259,7644],[295,7860],[17,4417],[11,2855],[-3,1506],[-12,5309],[204,7600],[-93,7894],[283,5738],[89,1790],[83,5297],[40,2526],[111,4400],[58,2335],[25,981],[112,4467],[38,1478],[60,2403],[44,4456],[39,3953],[159,8654],[198,7981],[-57,3865],[-57,3843],[276,3910],[265,3760],[102,4273],[88,3709],[136,5311],[59,2624],[49,3661],[66,4240],[1,92],[81,3606],[62,4597],[6009,-203],[1174,405],[2247,-97],[7602,-302],[3296,-131],[7540,-298],[2255,-51],[4699,-205],[763,-28],[634,-396],[5541,-127],[7813,-274],[5334,-187],[462,-20],[136,-6],[1434,-60],[545,-23],[889,-38],[3290,-139],[785,400],[4675,-102],[136,-3],[273,-6],[7299,-159],[6165,-229],[68,-2],[3256,-63],[3988,-77],[409,-8],[4159,-81],[10271,-212],[68,-2],[5424,-356],[317,-265],[5489,-40],[6815,-173],[6939,-124],[2351,-41]],[[871586,296205],[-30,-2818],[-8,-779],[-29,-2730],[-25,-3965],[-23,-3517],[-37,-4034],[-28,-2980],[1,-920],[-30,-3808],[-33,-4258],[-6250,103],[-110,-3632],[-121,-4014],[-118,-3772],[-129,-4105],[-103,-3290],[-117,-3694],[-110,-3470],[-113,-3559],[-141,-4458],[-6,-220],[-29,-911],[-37,-1166],[-13,-391],[-85,-2710],[-117,-3791],[-142,-4609],[-291,-9482],[-243,-7231],[-205,-6913],[-106,-3522],[-127,-4194],[38,-3451],[81,-7306],[-9,-3898],[-8,-3687],[-352,-9066],[-1244,-5710],[-2585,-5436],[-1575,-2419],[-2062,-3165],[-624,-957],[-968,-1474],[-868,-1321],[-557,-847],[-1699,-2588],[-1752,-2629],[-3024,-4537],[-3684,-5529],[-789,-680],[-827,-62],[-20,-2415],[-119,-5164],[-1096,-14011],[-103,-1307],[-936,-4922],[-1532,-4823],[-1707,-3825],[-2295,-4444],[-774,-3471],[124,-3725],[1,-87],[10,-522],[-9,-5448],[-4,-2426],[135,-2924],[6,-123],[125,-997],[53,-158],[575,-2024],[228,-982],[34,-304],[710,-5493],[-11548,-28],[-22128,6038],[-18180,5419],[-3203,1446],[-4940,3684],[-12256,8461],[-10650,5057],[-6614,1696],[-8920,-420],[-4751,-1507],[137,3935],[208,5958],[4,114],[34,976],[31,856],[42,1283],[325,9732],[33,1005],[49,1369],[37,1012],[55,1534],[40,1284],[-521,477],[9,4835],[3,1168],[14,4483],[3,1285],[58,7638],[41,3883],[39,3598],[39,3875],[36,3489],[32,3829],[34,4042],[36,3977],[32,3567],[-48,7557],[-63,8243],[-1023,4329],[-1004,3727],[-12,186],[-202,3356],[192,11896],[375,13587],[308,12995],[84,3538],[92,4404],[337,16135],[498,11709],[4,14268],[291,14331],[59,2897],[6848,-184],[68,-2],[6870,42],[771,-14],[694,358],[5420,-85],[6914,-249],[6967,-96],[5814,-112],[582,253],[689,-9],[8787,-120],[290,40],[271,38],[2880,398],[213,29],[3327,1074],[67,16],[3757,879],[3159,209],[9850,-157],[69,-2],[4331,20],[597,-496],[3307,-8],[7871,-195],[4979,-18],[3523,-50],[2796,-40],[2800,-35],[2729,-34],[4436,-79],[14562,-263],[3931,-58],[3431,-51],[4011,-6],[2898,-4]],[[543740,628441],[-226,-15188],[73,-9047],[26,-2511],[10,-1046],[21,-2300],[20,-2366],[49,-5846],[18,-1023],[77,-3782],[54,-2674],[13,-623],[72,-3509],[-9,-686],[-42,-3201],[0,-79],[-5,-465],[-58,-6257],[-10,-977],[-1,-77],[-104,-7090],[-4,-78],[-384,-8284],[-1,-78],[-322,-15864],[-74,-4351],[-31,-1834],[-334,-764],[-12,-1286],[-47,-6110],[-39,-3933],[-38,-3953],[-42,-4222],[-36,-3687],[-4719,80],[-10557,203],[-6243,198],[-3695,116],[77,3753],[52,2556],[-9684,177],[-11472,369],[-13295,344],[-725,-1790],[-137,-4243],[-2121,-712],[-913,15],[-12338,202],[-2617,18],[-4691,389],[-68,0],[-68,0],[-1494,1130],[-2952,2233],[-4537,2533],[-1529,577],[-1738,329],[-668,126],[-6048,194],[-2233,72],[-1181,39],[-3597,-1378],[-2919,-2063],[-1240,-1321],[-1880,-2004],[-1400,-793],[-1315,-134],[-12419,395],[-11452,356],[-11827,335],[17,4042],[17,3900],[85,3961],[91,4302],[78,3564],[91,4130],[84,3970],[99,4690],[90,3640],[99,4030],[81,4067],[78,3916],[90,3793],[106,4447],[52,4426],[43,3676],[77,3727],[70,3337],[225,7357],[17,1370],[72,5969],[12,3838],[10,3551],[112,3848],[114,3898],[82,3731],[85,3901],[185,3649],[202,3996],[95,8500],[-258,5633],[612,2061],[365,1083],[1266,1609],[4339,2840],[1486,832],[6599,3698],[89,50],[2790,1564],[88,49],[330,184],[15482,8675],[222,-530],[1833,-4363],[-539,-1085],[-3957,-1491],[-1771,-3895],[-1020,-4980],[76,-5842],[1380,-6534],[2743,-4745],[1366,395],[1433,-395],[3281,-2169],[1848,-3969],[1090,-383],[1224,2651],[-2335,9182],[0,1862],[1769,6311],[1157,2810],[1022,937],[5735,1257],[4376,-2872],[1097,-2650],[3077,-2564],[37,-92],[308,-767],[749,-1865],[5482,-6721],[10,-12],[1414,-1735],[1298,-542],[1511,-4204],[4112,-5435],[391,-1002],[41,-106],[659,-1690],[-1017,-4672],[692,-3193],[-481,-1404],[-9145,1380],[-2018,1103],[-1991,1089],[-1944,1062],[-951,-615],[-135,-87],[-477,-1393],[27,-662],[42,-1052],[511,-328],[582,-374],[554,394],[535,382],[1168,-542],[586,-1186],[1333,-2697],[2864,-690],[1584,-2516],[399,-633],[958,-1523],[1374,-308],[1227,703],[1840,1947],[1016,2810],[723,36],[2561,125],[3337,2181],[5427,-195],[275,-10],[55,-2],[108,-4],[12580,-454],[3960,-3575],[2601,1024],[1288,2416],[138,1947],[3886,-851],[1441,395],[3208,2416],[2724,702],[1371,-381],[677,-775],[-6,-993],[787,-1923],[460,-2152],[722,-739],[1399,-1431],[7787,-61],[950,850],[547,1640],[-4,5756],[-620,2415],[412,0],[403,3821],[1773,-1872],[3,-1319],[498,0],[803,0],[542,2883],[2108,1406],[212,1479],[955,863],[1085,2724],[7640,5386],[3290,3041],[924,855]],[[726811,767662],[-345,-24548],[4485,-5100],[-5,-465],[-18,-1635],[-46,-4336],[79,-5806],[17,-1168],[-50,-4207],[-18,-3702],[-158,-4364],[-151,-4173],[-80,-3770],[-82,-3925],[-86,-4170],[-77,-3734],[-45,-3663],[-49,-4019],[-46,-3844],[-47,-4018],[-53,-3690],[-60,-4139],[-47,-7911],[-5,-4225],[-4,-3570],[-80,-7878],[-114,-14097],[-39,-4195],[-15,-1672],[-21,-2237],[-31,-4032],[-30,-3894],[-5390,92],[-1828,31],[-5069,98],[-1093,21],[-1025,20],[-2253,43],[-3439,66],[-1240,58],[-493,133],[-137,37],[-2905,784],[-622,567],[-6202,1878],[-5480,1658],[-12780,3930],[-10246,3019],[-6547,1929],[-12509,3685],[-5576,1533],[-5098,1556],[-11099,3385],[-2010,613],[-1606,490],[-931,284],[-3159,889],[-3383,952],[32,1373],[14,622],[8,312],[248,10822],[112,4845],[71,3278],[28,1296],[103,4794],[140,6433],[68,2842],[25,1667],[146,2527],[56,892],[6,96],[-396,52],[-501,67],[-2366,-102],[-409,-18],[-8233,-355],[-1,785],[-5,7318],[-3,4020],[-178,2090],[-1935,-650],[-9540,134],[-2213,539],[-641,157],[-5335,1300],[1311,5536],[372,1567],[889,3737],[-3066,956],[-6812,2125],[-4349,1340],[-6454,2056],[-1531,890],[-4422,4837],[-4800,5571],[-1564,1889],[-694,838],[-244,295],[-2178,2629],[2161,2481],[2589,2973],[2361,2750],[2555,2977],[137,-45],[10276,-3396],[732,2890],[-261,2791],[-146,1891],[-141,1828],[-133,1717],[-147,1912],[-152,1966],[744,2027],[828,229],[1976,1138],[1474,293],[1289,546],[1366,278],[1782,26],[1559,-10],[1640,-300],[2936,-1544],[1893,-995],[4149,-1487],[1452,-284],[1142,-2],[56,331],[460,279],[495,867],[596,521],[1197,17],[502,-308],[512,-609],[280,-551],[224,-1364],[-40,-1514],[190,-1233],[263,-671],[529,-939],[880,-519],[1265,-634],[1303,-300],[1390,-1],[4778,1440],[3649,566],[3489,2],[-2,2309],[-1024,2],[189,1712],[1144,4],[-2,845],[-1477,45],[309,3828],[522,5980],[1476,-1],[3,-2312],[2109,-289],[1067,-933],[700,-1843],[915,-3475],[263,-1907],[387,-1585],[648,-1661],[583,-862],[1135,-1311],[300,297],[-296,8037],[7086,613],[-3941,8387],[-8350,3492],[-1760,1031],[-406,146],[-1887,1645],[14,2500],[1307,4815],[1940,7673],[4567,-2325],[6789,-3016],[8102,-3763],[15866,-7389],[400,14163],[11208,-5436],[-515,-28178],[3280,-1713],[3954,86],[396,23432],[6968,-221],[-450,-28572],[4989,-765],[-3,-937],[2046,-541],[333,14248],[2797,-74],[2,3193],[890,0],[2,-3045],[2596,-222],[-527,-20942],[889,0],[744,7778],[1289,-74],[-54,-6299],[3894,0],[-75,5374],[-1440,74],[189,17590],[553,0],[-61,-8012],[749,0],[123,7938],[345,-74],[-55,-8259],[-1230,87],[-64,-8420],[3009,13],[1900,4979],[-1091,6781],[198,2095],[-1093,1171],[-17,13078],[898,-74],[-131,-12770],[1025,-1010],[1097,-161],[1225,394],[1778,5535],[-1,1159],[-965,0],[2,702],[1030,0],[54,7161],[347,0],[145,-5990],[2386,-234],[-135,-1011],[-2322,0],[72,-1405],[2050,629],[1162,-395],[548,-1011],[280,-12141],[820,-3660],[755,86],[746,3575],[196,12300],[274,1171],[2321,395],[323,19229],[1302,0],[222,-20943],[4655,2488]],[[592747,698905],[2213,-539],[9540,-134],[1935,650],[178,-2090],[3,-4020],[5,-7318],[1,-785],[8233,355],[409,18],[2366,102],[501,-67],[396,-52],[-6,-96],[-56,-892],[-146,-2527],[-25,-1667],[-68,-2842],[-140,-6433],[-103,-4794],[-28,-1296],[-71,-3278],[-112,-4845],[-248,-10822],[-8,-312],[-14,-622],[-32,-1373],[-823,258],[-5376,1421],[-1500,-18],[-754,-9],[19,-291],[47,-718],[-1061,510],[-777,374],[-1735,-1446],[-2905,-1456],[-3,1948],[-612,1245],[-1702,0],[-2595,-1171],[-1505,308],[-825,924],[268,4832],[894,1011],[1634,87],[618,1392],[326,7630],[811,5066],[-549,1406],[-15904,283],[-1236,-629],[5,-1479],[-892,-936],[-1290,233],[-5189,-3894],[-1292,-4451],[-1024,-776],[-1571,-160],[-2117,1319],[-1501,87],[-1364,-2417],[73,-1566],[-3888,-3500],[-1372,-246],[-2114,1096],[746,-1171],[-537,-1010],[-1031,-234],[-752,1084],[-128,-1787],[-1985,-1726],[-6081,-788],[-4996,-2988],[-697,-417],[-112,-22],[-1512,-292],[-1856,37],[-1376,288],[-2957,-28],[-26,49],[-3832,7113],[-331,446],[1005,6743],[-2124,2258],[-6720,1443],[-1653,-1],[5382,11732],[442,532],[471,579],[171,951],[6346,7773],[188,490],[5782,6459],[1161,1298],[1128,1261],[8373,9620],[-4862,5332],[-4718,5528],[-2707,3047],[-2190,2466],[8625,9991],[5403,6206],[2500,2873],[2178,-2629],[244,-295],[694,-838],[1564,-1889],[4800,-5571],[4422,-4837],[1531,-890],[6454,-2056],[4349,-1340],[6812,-2125],[3066,-956],[-889,-3737],[-372,-1567],[-1311,-5536],[5335,-1300],[641,-157]],[[832800,550412],[-2396,745],[-1375,56],[-231,9],[-3778,153],[-587,5],[-18654,151],[-9632,122],[-9672,170],[-1033,5],[-3553,17],[-2251,40],[-1185,21],[-1956,34],[-5873,103],[-3420,60],[-9899,146],[-9235,136],[-5888,92],[-3744,58],[-9420,133],[1,795],[-332,827],[39,2570],[60,3942],[201,7810],[63,1795],[63,1783],[161,4563],[38,4312],[12,1360],[2,197],[19,2181],[15,1660],[19,5440],[139,8000],[-13,4315],[-11,3513],[96,7744],[30,3894],[31,4032],[21,2237],[15,1672],[39,4195],[114,14097],[80,7878],[4,3570],[5,4225],[47,7911],[60,4139],[53,3690],[47,4018],[46,3844],[49,4019],[45,3663],[77,3734],[86,4170],[82,3925],[80,3770],[151,4173],[158,4364],[18,3702],[50,4207],[-17,1168],[-79,5806],[46,4336],[18,1635],[5,465],[-4485,5100],[345,24548],[3535,1888],[261,18206],[36559,-13423],[130,14089],[6082,86],[-124,-26464],[6496,-74],[115,22261],[1158,-74],[-56,-15186],[4102,-61],[261,15876],[756,-74],[-194,-15112],[1093,-74],[65,-2255],[1507,0],[-5,1872],[564,-148],[325,-85],[0,-863],[1707,12],[206,-1257],[1165,13],[130,6064],[551,-75],[-139,-6224],[618,0],[0,1393],[1642,13],[59,5681],[1162,0],[5,-3661],[958,309],[61,4129],[1503,3267],[3491,-1862],[126,1479],[-1500,1085],[2594,6003],[1907,-937],[-816,1948],[814,468],[891,-1553],[2464,5140],[1571,1319],[2459,-308],[879,628],[-608,2022],[-618,-629],[-2050,2256],[-750,-703],[-2254,2959],[879,863],[1920,-2022],[1092,616],[1437,-2169],[1092,616],[-2869,4129],[677,543],[3283,-4586],[-888,-1023],[687,-1084],[3212,2490],[-555,1023],[1637,924],[-2802,4598],[3686,2576],[2124,-3353],[4029,3427],[961,-1011],[3478,4363],[3616,-221],[1989,2563],[7033,4216],[13605,6811],[245,-5380],[283,-2525],[-912,-2063],[-412,-2059],[-354,-3287],[-6674,-2429],[-6304,-2294],[-9067,-3311],[-463,-157],[-102,-4409],[-99,-4305],[-59,-3490],[-11,-782],[-32,-2279],[-37,-2517],[0,-2229],[-5,-1629],[308,-919],[-1,-1155],[-3,-2158],[-70,-1914],[-17,-919],[-11,-623],[-41,-2255],[-53,-2933],[29,-1085],[-7,-3615],[-7,-4250],[5,-3691],[7,-4230],[-16,-3788],[-15,-3788],[-6,-3920],[-7,-3938],[-13,-4080],[-12,-3917],[-12,-3713],[-13,-4105],[-11,-3992],[-11,-4091],[-20,-5223],[-7,-4529],[-10,-3673],[-9,-3396],[-10,-3689],[-10,-3420],[-32,-7435],[-9,-4326],[-5,-2627],[1,-1272],[-14,-3886],[-7,-1951],[-4,-1988],[-20,-5207],[4,-2713],[-12,-4825],[-21,-3024],[-7,-3725],[-3,-1801],[-10,-2128],[-6,-3700],[-4,-2201],[-6,-1473],[-13,-3565],[-11,-3295],[-15,-3633],[-15,-3740],[-18,-1247],[-34,-2874],[-52,-4356],[-87,-3654],[-105,-4421],[157,-3316],[34,-698],[184,-3877],[5,-3349],[6,-3848],[5,-1365],[-7,-2494],[-10,-3975],[16,-1802],[-60,-5563],[-20,-2260],[156,-6182],[-15,-1738],[-92,-7215]],[[832800,550412],[11,-7570],[46,-2092],[-208,-5720],[-12,-2197],[-3,-1428],[-11,-4224],[-12,-2564],[38,-3859],[20,-2046],[-10,-677],[-26,-1712],[-44,-2879],[-8,-528],[48,-4705],[45,-4373],[-15,-2658],[-69,-11808],[202,-13762],[12,-5278],[-29,-4575],[9,-1038],[-4,-1571],[-13,-4524],[-13,-7297],[-1,-401],[0,-176],[-97,-7924],[-29,-3501],[-1,-168],[-32,-4030],[-40,-1481],[-54,-2024],[-8,-2665],[-5,-8575],[8,-3532],[-18,-3664],[-2,-4186],[-17,-3282],[7,-6931],[29,-5388],[-33,-2213],[-126,-2512],[-371,-1776],[-803,-2378],[-2008,-3257],[-3965,-6204],[-5155,4181],[-13162,10464],[-9713,8124],[-6996,5556],[-6744,5566],[-3150,2538],[-3327,2680],[-3538,3004],[-1227,1042],[-1140,920],[-4580,3717],[-6695,5415],[-3651,2962],[-1400,1136],[-5180,3917],[-12865,9721],[-901,721],[-6159,5561],[-3214,3192],[-9367,7793],[-9454,7665],[-7018,5749],[-2521,2012],[-7410,6064],[-2121,1737],[-6672,5499],[-2175,1793],[-8788,7055],[-3221,-4],[239,2484],[365,1214],[1353,2883],[1792,-123],[8214,-565],[1076,-75],[8407,-590],[986,-78],[7053,-490],[1627,-113],[952,-69],[8407,-591],[980,-69],[8495,-595],[9714,-684],[1041,-89],[40,5686],[29,4158],[2640,-31],[749,-36],[-48,56],[-1066,1221],[-1179,2316],[-480,2190],[-23,2184],[0,635],[3,3034],[3,4048],[2,3737],[3,3966],[0,78],[3,3897],[0,99],[2,3047],[0,557],[-5,8537],[9420,-133],[3744,-58],[5888,-92],[9235,-136],[9899,-146],[3420,-60],[5873,-103],[1956,-34],[1185,-21],[2251,-40],[3553,-17],[1033,-5],[9672,-170],[9632,-122],[18654,-151],[587,-5],[3778,-153],[231,-9],[1375,-56],[2396,-745]],[[997300,580815],[-1090,-330],[-2708,-868],[-3388,-1552],[-2601,-1513],[-2060,-1265],[-764,-492],[-133,-86],[-600,-387],[-2008,-1517],[-476,-802],[-208,-350],[-473,-511],[-913,-986],[-7434,-8028],[-1020,-1167],[-6512,-7453],[-4179,-2913],[-58,-41],[-864,-294],[-2554,-907],[-1644,-584],[-5888,-402],[-1351,-93],[-1579,123],[-73,0],[-801,2],[-901,-1],[-5667,-5],[-6830,-7],[-6819,-17],[-5923,34],[-5200,14],[-7193,204],[-9824,148],[-3771,57],[-13545,466],[-12645,42],[-4658,-1],[-8378,-3],[-3959,2],[-8439,97],[-1366,14],[-2646,28],[-1658,17],[-67,17],[-3632,907],[92,7215],[15,1738],[-156,6182],[20,2260],[60,5563],[-16,1802],[10,3975],[7,2494],[-5,1365],[-6,3848],[-5,3349],[-184,3877],[-34,698],[-157,3316],[105,4421],[87,3654],[52,4356],[34,2874],[18,1247],[15,3740],[15,3633],[11,3295],[13,3565],[6,1473],[4,2201],[6,3700],[10,2128],[3,1801],[7,3725],[21,3024],[12,4825],[-4,2713],[20,5207],[4,1988],[7,1951],[14,3886],[-1,1272],[5,2627],[9,4326],[32,7435],[10,3420],[10,3689],[9,3396],[10,3673],[7,4529],[20,5223],[11,4091],[11,3992],[13,4105],[12,3713],[12,3917],[13,4080],[7,3938],[6,3920],[15,3788],[16,3788],[-7,4230],[-5,3691],[7,4250],[7,3615],[-29,1085],[53,2933],[41,2255],[11,623],[17,919],[70,1914],[3,2158],[1,1155],[-308,919],[5,1629],[0,2229],[37,2517],[32,2279],[11,782],[59,3490],[99,4305],[102,4409],[463,157],[9067,3311],[6304,2294],[6674,2429],[354,3287],[412,2059],[912,2063],[-283,2525],[-245,5380],[7571,3789],[1702,-468],[556,-4363],[1026,-1011],[1299,-74],[812,3045],[4372,-863],[4164,2810],[3082,234],[2391,-1479],[1706,-6385],[8339,-6373],[1505,-73],[4439,3118],[1638,0],[11071,-3661],[3489,-4585],[1236,-2885],[2795,-2958],[8413,-382],[2391,-1245],[9014,-1627],[4104,-1479],[1634,86],[-1230,2638],[-408,2958],[1780,235],[952,-2490],[5670,-543],[3764,-2021],[13932,14643],[-5542,-1318],[-472,776],[-22474,-7568],[-70,1639],[33476,12474],[547,-1245],[1767,925],[2870,-382],[3075,1914],[890,554],[4035,2512],[6965,1491],[3989,180],[5,-820],[10,-812],[7,-140],[100,-2017],[-77,-549],[-237,-1782],[-133,-1162],[-41,-2938],[-317,-3010],[-28,-2845],[-10,-924],[-37,-3821],[-37,-3413],[-26,-4419],[-6,-3858],[-78,-3957],[-27,-4121],[-5,-785],[-3,-467],[-17,-2521],[-13,-4012],[-11,-3510],[-23,-3886],[-23,-3845],[-2,-78],[-78,-3862],[-86,-4261],[-32,-3836],[-35,-4089],[0,-79],[-15,-3695],[-15,-3826],[0,-78],[-17,-3958],[-17,-3758],[0,-79],[-72,-3870],[-73,-3902],[-1,-78],[-51,-7794],[0,-78],[-2,-3953],[-1,-3819],[0,-78],[-13,-3732],[-13,-4024],[-22,-2439],[20,-5014],[-40,-2032],[10,-4403],[4,-1507],[-29,-7834],[6,-2245],[-20,-1648],[-46,-3861],[19,-7056],[3,-1029],[-34,-6111],[2,-1824],[-25,-6220],[-15,-1691],[-19,-7577],[-108,-7931],[-51,-7887],[30,-6574],[11,-1185],[38,-8056],[0,-78],[-32,-15793],[-109,-8507]],[[996971,541483],[12,-2651],[64,-6030],[33,-1904],[16,-463],[218,-6143],[-28,-7795],[-64,-7660],[-14,-7803],[-13,-7813],[-3,-1893],[-14,-5013],[-10,-4537],[-11,-7709],[-1,-236],[-3,-1273],[-17,-6279],[-10,-7873],[-16,-7218],[0,-79],[-42,-7981],[-28,-7741],[0,-78],[-34,-7966],[-23,-7405],[0,-78],[-37,-7498],[-16,-7138],[-9,-3964],[-1,-467],[0,-140],[-8,-3461],[-9,-12490],[-25,-3588],[-1,-79],[-31,-4360],[0,-78],[4,-4485],[0,-342],[4,-4529],[74,-4968],[2,-109],[18,-1250],[507,-5686],[10,-108],[86,-15636],[13,-6683],[-22,-6719],[-84,-11144],[-11,-1492],[-2,-221],[-8,-1013],[-7,-934],[-11,-1523],[-102,-17576],[-615,-49],[-69,-5],[-6107,-439],[-1163,-100],[-4242,-350],[-2735,-195],[-8254,-563],[-5583,-488],[-6632,-610],[-3226,388],[-2456,898],[-126,65],[-1715,889],[-1889,1501],[1969,3478],[2422,4280],[-3507,2546],[-14412,10460],[-1243,-2311],[-1905,-3541],[-383,345],[-2887,-4891],[-1505,-1775],[-3110,-2230],[-4160,-1297],[-2481,-155],[-69,-4],[-3480,17],[-3776,18],[-69,1],[-3526,60],[-3686,61],[-68,0],[-3206,4],[-3560,3],[-7058,33],[-69,-1],[-4183,-53],[-579,-362],[-2226,130],[-3385,-289],[-139,-12],[-3062,-618],[-3431,-693],[-4145,-122],[-2898,4],[-4011,6],[-3431,51],[-3931,58],[-14562,263],[-4436,79],[-2729,34],[-2800,35],[-2796,40],[-3523,50],[-4979,18],[153,4671],[142,4374],[21,4350],[20,4287],[47,4434],[46,4293],[167,8709],[54,4201],[2,154],[-100,5321],[120,7799],[53,3854],[53,3774],[57,3701],[57,3730],[44,1768],[173,2330],[366,1613],[978,2677],[159,434],[1086,1742],[3965,6204],[2008,3257],[803,2378],[371,1776],[126,2512],[33,2213],[-29,5388],[-7,6931],[17,3282],[2,4186],[18,3664],[-8,3532],[5,8575],[8,2665],[54,2024],[40,1481],[32,4030],[1,168],[29,3501],[97,7924],[0,176],[1,401],[13,7297],[13,4524],[4,1571],[-9,1038],[29,4575],[-12,5278],[-202,13762],[69,11808],[15,2658],[-45,4373],[-48,4705],[8,528],[44,2879],[26,1712],[10,677],[-20,2046],[-38,3859],[12,2564],[11,4224],[3,1428],[12,2197],[208,5720],[-46,2092],[-11,7570],[3632,-907],[67,-17],[1658,-17],[2646,-28],[1366,-14],[8439,-97],[3959,-2],[8378,3],[4658,1],[12645,-42],[13545,-466],[3771,-57],[9824,-148],[7193,-204],[5200,-14],[5923,-34],[6819,17],[6830,7],[5667,5],[901,1],[801,-2],[73,0],[1579,-123],[1351,93],[5888,402],[1644,584],[2554,907],[864,294],[58,41],[4179,2913],[6512,7453],[1020,1167],[7434,8028],[913,986],[473,511],[208,350],[476,802],[2008,1517],[600,387],[133,86],[764,492],[2060,1265],[2601,1513],[3388,1552],[2708,868],[1090,330],[-1,-772],[-16,-16395],[-63,-5209],[-62,-5244],[-15,-1275],[-79,-6621],[-54,-2383],[-39,-1433]],[[457646,508055],[1494,-1130],[68,0],[68,0],[4691,-389],[2617,-18],[12338,-202],[913,-15],[2121,712],[-99,-3717],[-104,-3905],[-29,-1387],[-163,-6501],[-198,-7896],[-91,-3665],[-99,-3974],[-97,-3734],[-108,-4154],[-97,-3862],[-98,-3916],[-89,-3325],[-119,-4461],[-63,-6986],[-52,-5834],[20,-1754],[-145,-4172],[-152,-4367],[-154,-7991],[-310,-7960],[64,-7807],[-47,-7840],[-46,-2921],[-25,-1558],[-55,-3490],[-539,-10360],[-153,-8163],[-72,-3716],[-85,-4439],[-167,-8641],[-160,-8306],[-149,-7689],[-140,-7782],[-390,-19819],[-78,-3921],[-10,-441],[-13,-587],[-3956,264],[-7489,500],[-714,57],[-756,417],[-5832,364],[-3506,201],[-3968,246],[-3540,210],[-3756,221],[-4017,243],[-3762,227],[-4037,241],[-3927,221],[-3769,247],[-4329,283],[155,-16246],[-350,-15880],[-193,-8138],[-171,-7928],[-187,-7600],[-85,-3739],[-97,-4314],[-454,-19211],[-136,-5764],[-92,-4892],[-207,-7809],[-128,-7868],[-218,-7708],[-226,-7926],[-125,-4898],[-3534,155],[-14732,649],[-7448,-62],[-7440,165],[-3460,65],[-3729,71],[-66,-3687],[-72,-3908],[-84,-3413],[-94,-3759],[9,-3709],[3,-1167],[6,-2367],[142,-3110],[209,-671],[-745,-807],[-533,-2737],[95,-467],[416,-2051],[-116,-6006],[-92,-4209],[-90,-4046],[-122,-7354],[-286,-11409],[-105,-3947],[-107,-4140],[-80,-3086],[-32,-1115],[-198,-6951],[-352,-2261],[2249,-3681],[-2401,-2056],[-649,-556],[-424,-2456],[-253,-1468],[-519,-3011],[-560,-3252],[-570,-683],[427,-583],[-1072,-9505],[-283,-2513],[-591,-5239],[-320,-2840],[-5046,2147],[-14024,17771],[-8600,16427],[-8166,10206],[-32882,26911],[-23319,7550],[-19626,4337],[-40576,6381],[-25805,15374],[-28551,17006],[-52,8145],[-209,3743],[1249,41034],[334,-29],[3117,-265],[23972,-114],[416,3115],[122,5490],[-101,8463],[16517,-205],[166,5085],[142,4334],[218,6648],[230,7207],[3850,23],[2797,17],[1695,10],[5490,-17],[236,-22],[2361,-221],[-175,17470],[214,6134],[-72,8314],[-3,2174],[-9,6066],[5055,-43],[2359,-19],[2453,-21],[4839,-88],[13353,-57],[13977,-131],[-14,7639],[-10,5138],[-7,3478],[11,4307],[10,4096],[3,4156],[2,4186],[15,2132],[42,5909],[-13,4200],[-14,4206],[10,3813],[10,4153],[64,4257],[63,4250],[27,4157],[24,3723],[27,4295],[26,4036],[28,4216],[28,4013],[-52,4162],[-52,4192],[74,4135],[67,3779],[15,4475],[5,1565],[-136,1753],[-1360,1309],[-2053,2744],[-2313,5160],[-1593,3553],[-1942,4332],[-215,484],[-543,1226],[2596,-282],[1770,-697],[1540,-842],[5749,-5322],[-3068,6104],[-732,1451],[-1099,2180],[-739,1471],[-1825,3635],[-1925,3830],[-569,1133],[-2016,2844],[-2938,4261],[-114,166],[17,3421],[-2415,1],[-3004,4324],[-2421,3485],[-2647,3899],[-188,277],[-169,249],[-1604,3526],[-1874,4082],[-1753,3817],[-487,1075],[-9902,13072],[319,944],[115,1431],[198,2452],[6,616],[8,772],[9579,-251],[68,-2],[6371,-192],[2927,-88],[273,-8],[6069,-126],[3601,-74],[9012,-248],[10403,-319],[4260,-106],[5046,-125],[4987,-244],[2805,-370],[2394,-835],[2235,-484],[2542,-272],[4081,9],[-1,-430],[11732,-344],[68,-2],[11791,-429],[9356,-190],[403,215],[2014,40],[9777,-269],[3394,-94],[2125,-121],[3628,-93],[4799,-124],[11912,-275],[11882,-368],[11827,-335],[11452,-356],[12419,-395],[1315,134],[1400,793],[1880,2004],[1240,1321],[2919,2063],[3597,1378],[1181,-39],[2233,-72],[6048,-194],[668,-126],[1738,-329],[1529,-577],[4537,-2533],[2952,-2233]],[[25471,683978],[2951,-553],[3324,1],[3175,303],[3083,549],[984,-493],[205,-2065],[645,-1182],[191,-2008],[650,-1186],[1003,-858],[1333,-261],[3063,-172],[2314,-123],[1400,3],[2364,579],[454,277],[323,1479],[318,522],[338,297],[10,-564],[-828,-3423],[-8,-1714],[336,-1751],[816,-899],[1529,-586],[4938,-559],[837,264],[337,599],[-1,1712],[491,1734],[169,55],[132,502],[196,-852],[-342,-3997],[3,-2621],[875,-726],[1914,-1577],[3510,-13],[6432,562],[18370,4360],[3489,853],[3315,1147],[1854,574],[2460,1450],[3980,1155],[1481,3],[-2,-285],[689,-575],[145,264],[1660,-1670],[1476,-1486],[4490,-2887],[1295,-578],[713,-279],[488,-590],[1134,-564],[4516,-899],[1651,-257],[1151,-2],[-342,-1748],[2777,-2275],[3997,-5781],[-330,-1],[200,-316],[645,-2614],[668,-2273],[1646,-2896],[1647,-1697],[1657,-1153],[1980,-1160],[1186,-305],[1131,-587],[1184,-270],[1318,1],[1502,-299],[4288,-1],[1513,-295],[2794,1],[1171,295],[1142,3],[1164,558],[2302,590],[1343,302],[2499,2],[1343,267],[1125,294],[671,296],[300,-1],[1156,292],[1192,267],[310,300],[491,0],[1176,594],[838,561],[341,1161],[152,1447],[340,1419],[1151,1],[1311,1],[1180,-265],[978,-295],[350,-299],[832,-296],[790,-560],[1023,-596],[1146,-265],[4318,1],[489,-318],[59,-184],[687,-1879],[-28,-1612],[-92,-5180],[-97,-4014],[-104,-4287],[-65,-3541],[-81,-4395],[-58,-3428],[-69,-4128],[-38,-3580],[-47,-4368],[-204,-7396],[-92,-3965],[-74,-3176],[-84,-3676],[-86,-3760],[-81,-3477],[-85,-3633],[-117,-3527],[-134,-4062],[-47,-3724],[-50,-3966],[-43,-3141],[-14,-992],[-54,-3953],[14,-3752],[15,-3850],[73,-1749],[50,-1196],[157,-516],[314,-1033],[2579,-3284],[694,-883],[2511,-3198],[2005,-2553],[1111,-1618],[131,-1056],[135,-1092],[-95,-1768],[-215,-4010],[-1,-3853],[-1,-4036],[9655,-220],[1412,-36],[5411,-136],[3506,-88],[9372,-311],[68,-2],[-8,-772],[-6,-616],[-198,-2452],[-115,-1431],[-319,-944],[9902,-13072],[487,-1075],[1753,-3817],[1874,-4082],[1604,-3526],[169,-249],[188,-277],[2647,-3899],[2421,-3485],[3004,-4324],[2415,-1],[-17,-3421],[114,-166],[2938,-4261],[2016,-2844],[569,-1133],[1925,-3830],[1825,-3635],[739,-1471],[1099,-2180],[732,-1451],[3068,-6104],[-5749,5322],[-1540,842],[-1770,697],[-2596,282],[543,-1226],[215,-484],[1942,-4332],[1593,-3553],[2313,-5160],[2053,-2744],[1360,-1309],[136,-1753],[-5,-1565],[-15,-4475],[-67,-3779],[-74,-4135],[52,-4192],[52,-4162],[-28,-4013],[-28,-4216],[-26,-4036],[-27,-4295],[-24,-3723],[-27,-4157],[-63,-4250],[-64,-4257],[-10,-4153],[-10,-3813],[14,-4206],[13,-4200],[-42,-5909],[-15,-2132],[-2,-4186],[-3,-4156],[-10,-4096],[-11,-4307],[7,-3478],[10,-5138],[14,-7639],[-13977,131],[-13353,57],[-4839,88],[-2453,21],[-2359,19],[-5055,43],[9,-6066],[3,-2174],[72,-8314],[-214,-6134],[175,-17470],[-2361,221],[-236,22],[-5490,17],[-1695,-10],[-2797,-17],[-3850,-23],[-230,-7207],[-218,-6648],[-142,-4334],[-166,-5085],[-16517,205],[101,-8463],[-122,-5490],[-416,-3115],[-23972,114],[-3117,265],[-334,29],[-1249,-41034],[209,-3743],[52,-8145],[-54448,20563],[2425,6219],[-491,2631],[3,1937],[741,1879],[245,1569],[0,1194],[-496,1151],[-1669,2316],[-4449,2894],[-1017,881],[-1115,840],[-5183,5819],[-475,1422],[-11,1832],[-167,1632],[-858,1149],[-1154,587],[-2145,1714],[-795,1160],[-1326,2332],[-825,3128],[181,3860],[800,3107],[-347,1457],[-536,1476],[-589,1060],[-740,3271],[-585,1055],[-1487,578],[-1990,1429],[-986,1146],[-688,1165],[-991,894],[-1450,1980],[-1994,3983],[-882,1238],[-893,982],[-2403,3052],[-492,1441],[-644,1160],[-1016,857],[-507,1470],[-634,1139],[-1170,852],[-1346,610],[-855,896],[-1591,2263],[-1262,536],[-1243,620],[-5124,4036],[-5259,5235],[-1515,1387],[-5822,3790],[-4651,4871],[-314,204],[-4154,2699],[-1126,554],[-3232,2672],[-4262,3122],[-2264,1389],[-1015,911],[-1186,569],[-2283,1436],[-2796,2851],[-2554,3199],[-1448,2297],[-1641,1993],[-269,250],[1397,2891],[1632,4062],[4493,11539],[52792,-31642],[221,-132],[4129,-3483],[144,270],[464,866],[608,1134],[826,1038],[1612,2025],[1863,1998],[188,278],[1112,1643],[138,204],[6240,6907],[2088,2384],[875,1036],[449,-222],[25974,-12569],[1605,-777],[12873,-6218],[778,1796],[91,449],[362,1791],[9,1037],[-20,7290],[-7762,79],[341,18180],[7488,424],[29,4095],[28,4033],[51,8363],[3,4188],[3,3856],[35,4242],[31,3956],[29,4068],[2,306],[27,3793],[33,4459],[27,3747],[-37,4424],[-32,3819],[62,4437],[54,3821],[-7902,548],[-2831,196],[-670,572],[-3628,3099],[-579,494],[-470,402],[-1049,896],[-5041,4307],[-9729,8461],[-7121,6191],[1432,1931],[1517,687],[14701,4573],[2480,771],[2702,55],[4446,89],[1411,739],[10290,788],[-151,14881],[11,74],[581,8118],[950,8893],[-258,10961],[-26,3595],[-18,4077],[-17,3775],[-7333,744],[-14850,1044],[-9505,-307],[-489,1953],[-920,7840],[-145,1235],[49,1425],[20,423],[34,736],[-68,1],[-15115,396],[-68,2],[-15029,530],[-68,3],[-14892,531],[-68,3],[-15099,655],[-68,3],[97,7581],[33,3992],[32,3839],[215,7817],[29,1968],[28,1868],[59,3899],[110,7760],[58,3993],[51,3524],[23,1246],[127,3485],[128,3512],[218,3877],[63,1107],[51,991],[49,945],[47,567],[8,616],[71,3323],[76,3522],[74,3484],[79,3727],[-9824,114],[-8189,-801],[-4481,-438],[155,6689],[-16,6758],[0,111],[-289,1509],[-3201,-588],[-6361,-1170],[-167,-31],[350,15456],[-3370,4458],[-8683,15504],[-226,16410],[-10,728],[-1295,14697],[1764,7295],[317,3722],[157,2235],[1514,-20],[1479,234],[1523,12],[2615,848],[1512,590],[2145,-1717],[1467,-287],[2193,-307],[974,-294],[1000,-862],[2827,-862],[1639,-291],[1196,-870],[1149,-589]],[[424458,661055],[-15482,-8675],[-330,-184],[-88,-49],[-2790,-1564],[-89,-50],[-6599,-3698],[-1486,-832],[-4339,-2840],[-1266,-1609],[-365,-1083],[-612,-2061],[258,-5633],[-95,-8500],[-202,-3996],[-185,-3649],[-85,-3901],[-82,-3731],[-114,-3898],[-112,-3848],[-10,-3551],[-12,-3838],[-72,-5969],[-17,-1370],[-225,-7357],[-70,-3337],[-77,-3727],[-43,-3676],[-52,-4426],[-106,-4447],[-90,-3793],[-78,-3916],[-81,-4067],[-99,-4030],[-90,-3640],[-99,-4690],[-84,-3970],[-91,-4130],[-78,-3564],[-91,-4302],[-85,-3961],[-17,-3900],[-17,-4042],[-11882,368],[-11912,275],[-4799,124],[-3628,93],[-2125,121],[-3394,94],[-9777,269],[-2014,-40],[-403,-215],[-9356,190],[-11791,429],[-68,2],[-11732,344],[1,430],[-4081,-9],[-2542,272],[-2235,484],[-2394,835],[-2805,370],[-4987,244],[-5046,125],[-4260,106],[-10403,319],[-9012,248],[-3601,74],[-6069,126],[-273,8],[-2927,88],[-6371,192],[-68,2],[-9579,251],[-68,2],[-9372,311],[-3506,88],[-5411,136],[-1412,36],[-9655,220],[1,4036],[1,3853],[215,4010],[95,1768],[-135,1092],[-131,1056],[-1111,1618],[-2005,2553],[-2511,3198],[-694,883],[-2579,3284],[-314,1033],[-157,516],[-50,1196],[-73,1749],[-15,3850],[-14,3752],[54,3953],[14,992],[43,3141],[50,3966],[47,3724],[134,4062],[117,3527],[85,3633],[81,3477],[86,3760],[84,3676],[74,3176],[92,3965],[204,7396],[47,4368],[38,3580],[69,4128],[58,3428],[81,4395],[65,3541],[104,4287],[97,4014],[92,5180],[28,1612],[-687,1879],[-59,184],[-489,318],[1323,-298],[2666,-1],[1484,-297],[1313,1],[2326,-570],[1006,-610],[793,-534],[649,-817],[629,-858],[877,-924],[993,-571],[993,-302],[1311,-293],[5503,-1],[1146,-562],[1049,-304],[3777,-856],[1139,-296],[1295,-291],[1234,-577],[939,-287],[1185,-562],[1008,-302],[1293,-289],[4309,1],[1327,-261],[2642,-599],[1138,0],[1353,-298],[1161,-308],[1162,-549],[1305,1],[2660,-593],[2653,-3],[1650,-260],[1165,-301],[1310,1],[1351,-297],[2776,1],[1528,-264],[1353,2],[1293,260],[5328,15],[1321,296],[890,270],[1274,292],[2079,575],[368,6],[157,297],[685,282],[791,573],[1008,558],[993,300],[6,301],[994,297],[1956,1150],[1193,271],[1956,1150],[1153,295],[1985,857],[2000,1152],[1173,319],[839,565],[980,883],[822,557],[807,832],[726,636],[774,832],[681,566],[796,852],[680,894],[674,1141],[657,881],[840,593],[823,851],[1001,571],[991,301],[2311,550],[1315,7],[2494,593],[1331,2],[1322,295],[1135,1],[1343,263],[1346,9],[2487,592],[814,550],[1359,0],[1120,-259],[201,-10],[958,-580],[848,-307],[1599,-1684],[848,-613],[989,-565],[352,-6],[695,-296],[2649,3],[1465,295],[3976,0],[1154,-304],[1156,-551],[990,-298],[1179,-564],[3645,-892],[1333,10],[977,586],[482,1146],[349,1418],[153,1160],[1215,3865],[460,1073],[1172,2018],[483,1134],[1819,3171],[496,1162],[448,784],[2148,4024],[585,1603],[383,1035],[479,771],[554,1283],[494,848],[1708,6707],[468,820],[2342,2331],[1042,343],[789,528],[1121,568],[1381,15],[1408,251],[1565,-283],[2290,-565],[1103,-541],[1211,-318],[1054,-597],[1231,0],[878,300],[1751,1922],[1521,2108],[498,1408],[351,1761],[150,1719],[490,1497],[840,840],[1313,557],[1699,291],[973,-849],[-828,-1146],[-1148,-607],[-798,-1107],[-32,-913],[-96,-875],[633,-1146],[3970,-1708],[1293,-287],[813,-1134],[1005,-881],[1319,294],[872,918],[617,1374],[659,1120],[653,1454],[830,867],[1143,841],[1331,609],[1543,310],[2970,-605],[1306,-556],[1064,-781],[1036,-544],[1627,-715],[1085,-567],[1118,-818],[1183,-633],[1170,-850],[997,-871],[822,-1135],[1055,-901],[1145,-590],[941,-820],[848,-1181],[629,-1118],[743,-1471],[1071,-2555],[278,-1475],[578,-1726],[1092,-542],[1354,241],[568,28],[132,-1120],[-2649,-2356],[-147,-1392],[3259,-7508],[162,-249],[1049,-966],[1357,-541],[194,-461]],[[825188,375059],[-1086,-1742],[-159,-434],[-978,-2677],[-366,-1613],[-173,-2330],[-44,-1768],[-57,-3730],[-57,-3701],[-53,-3774],[-53,-3854],[-120,-7799],[100,-5321],[-2,-154],[-54,-4201],[-167,-8709],[-46,-4293],[-47,-4434],[-20,-4287],[-21,-4350],[-142,-4374],[-153,-4671],[-7871,195],[-3307,8],[-597,496],[-4331,-20],[-69,2],[-9850,157],[-3159,-209],[-3757,-879],[-67,-16],[-3327,-1074],[-213,-29],[-2880,-398],[-271,-38],[-290,-40],[-8787,120],[-689,9],[-582,-253],[-5814,112],[-6967,96],[-6914,249],[-5420,85],[-694,-358],[-771,14],[-6870,-42],[-68,2],[-6848,184],[-3444,86],[-3234,81],[-4362,105],[-224,416],[-2351,41],[-6939,124],[-6815,173],[-5489,40],[-317,265],[-5424,356],[-68,2],[-10271,212],[-4159,81],[-409,8],[-3988,77],[-3256,63],[-68,2],[-6165,229],[48,7813],[51,8203],[171,7983],[159,7438],[75,3552],[14,646],[243,11106],[23,4126],[70,13044],[82,4743],[134,7526],[68,7574],[73,8105],[152,8957],[21,1512],[297,6933],[82,9312],[139,8592],[55,9096],[74,4533],[112,7846],[197,7927],[93,7689],[334,7773],[153,8054],[44,7849],[192,7794],[394,7536],[3221,4],[8788,-7055],[2175,-1793],[6672,-5499],[2121,-1737],[7410,-6064],[2521,-2012],[7018,-5749],[9454,-7665],[9367,-7793],[3214,-3192],[6159,-5561],[901,-721],[12865,-9721],[5180,-3917],[1400,-1136],[3651,-2962],[6695,-5415],[4580,-3717],[1140,-920],[1227,-1042],[3538,-3004],[3327,-2680],[3150,-2538],[6744,-5566],[6996,-5556],[9713,-8124],[13162,-10464],[5155,-4181]],[[617470,643226],[3383,-952],[3159,-889],[931,-284],[1606,-490],[2010,-613],[11099,-3385],[5098,-1556],[5576,-1533],[12509,-3685],[6547,-1929],[10246,-3019],[12780,-3930],[5480,-1658],[6202,-1878],[622,-567],[2905,-784],[137,-37],[493,-133],[1240,-58],[3439,-66],[2253,-43],[1025,-20],[1093,-21],[5069,-98],[1828,-31],[5390,-92],[-96,-7744],[11,-3513],[13,-4315],[-139,-8000],[-19,-5440],[-15,-1660],[-19,-2181],[-2,-197],[-12,-1360],[-38,-4312],[-161,-4563],[-63,-1783],[-63,-1795],[-201,-7810],[-60,-3942],[-39,-2570],[332,-827],[-1,-795],[5,-8537],[0,-557],[-2,-3047],[0,-99],[-3,-3897],[0,-78],[-3,-3966],[-2,-3737],[-3,-4048],[-3,-3034],[0,-635],[23,-2184],[480,-2190],[1179,-2316],[1066,-1221],[48,-56],[-749,36],[-2640,31],[-29,-4158],[-40,-5686],[-1041,89],[-9714,684],[-8495,595],[-980,69],[-8407,591],[-952,69],[-1627,113],[-7053,490],[-986,78],[-8407,590],[-1076,75],[-8214,565],[-1792,123],[-1353,-2883],[-365,-1214],[-239,-2484],[-3974,118],[-6012,179],[-8872,259],[-782,23],[-13361,393],[-5083,132],[-1365,36],[-3301,86],[-11026,235],[-2878,58],[-3983,96],[-5978,143],[-8467,248],[-1105,36],[-9627,419],[-12877,570],[-7372,328],[-6476,201],[-3408,112],[-1826,54],[-4187,537],[-786,100],[-2544,48],[36,3687],[42,4222],[38,3953],[39,3933],[47,6110],[12,1286],[334,764],[31,1834],[74,4351],[322,15864],[1,78],[384,8284],[4,78],[104,7090],[1,77],[10,977],[58,6257],[5,465],[0,79],[42,3201],[9,686],[-72,3509],[-13,623],[-54,2674],[-77,3782],[-18,1023],[-49,5846],[-20,2366],[-21,2300],[-10,1046],[-26,2511],[-73,9047],[226,15188],[1520,1404],[7641,3205],[1573,0],[890,-924],[3003,629],[743,1010],[-2249,851],[884,1011],[2524,555],[897,-938],[2722,2885],[1028,160],[473,-1405],[1912,1800],[1367,468],[6622,86],[2946,-542],[677,-1245],[-131,-1861],[1028,-703],[1291,2490],[1094,789],[8266,-222],[11201,1024],[819,1010],[124,1873],[2905,1456],[1735,1446],[777,-374],[1061,-510],[-47,718],[-19,291],[754,9],[1500,18],[5376,-1421],[823,-258]],[[542354,505250],[2544,-48],[786,-100],[4187,-537],[1826,-54],[3408,-112],[6476,-201],[7372,-328],[12877,-570],[9627,-419],[1105,-36],[8467,-248],[5978,-143],[3983,-96],[2878,-58],[11026,-235],[3301,-86],[1365,-36],[5083,-132],[13361,-393],[782,-23],[8872,-259],[6012,-179],[3974,-118],[-394,-7536],[-192,-7794],[-44,-7849],[-153,-8054],[-334,-7773],[-93,-7689],[-197,-7927],[-112,-7846],[-74,-4533],[-55,-9096],[-139,-8592],[-82,-9312],[-297,-6933],[-21,-1512],[-152,-8957],[-73,-8105],[-68,-7574],[-134,-7526],[-82,-4743],[-70,-13044],[-23,-4126],[-243,-11106],[-14,-646],[-75,-3552],[-159,-7438],[-171,-7983],[-51,-8203],[-48,-7813],[-7299,159],[-273,6],[-136,3],[-4675,102],[-785,-400],[-3290,139],[-889,38],[-545,23],[-1434,60],[-136,6],[-462,20],[-5334,187],[-7813,274],[-5541,127],[-634,396],[-763,28],[-4699,205],[-2255,51],[-7540,298],[-3296,131],[-7602,302],[-2247,97],[-1174,-405],[-6009,203],[-12541,820],[-13067,797],[-6501,350],[-2023,95],[-868,508],[-3945,317],[-393,28],[-8875,647],[-3487,254],[-1708,111],[-7466,449],[-7586,540],[-7400,422],[-1773,100],[-5666,317],[-7436,353],[-251,15],[-20505,1243],[-105,7],[78,3921],[390,19819],[140,7782],[149,7689],[160,8306],[167,8641],[85,4439],[72,3716],[153,8163],[539,10360],[55,3490],[25,1558],[46,2921],[47,7840],[-64,7807],[310,7960],[154,7991],[152,4367],[145,4172],[-20,1754],[52,5834],[63,6986],[119,4461],[89,3325],[98,3916],[97,3862],[108,4154],[97,3734],[99,3974],[91,3665],[198,7896],[163,6501],[29,1387],[104,3905],[99,3717],[137,4243],[725,1790],[13295,-344],[11472,-369],[9684,-177],[-52,-2556],[-77,-3753],[3695,-116],[6243,-198],[10557,-203],[4719,-80]],[[938977,313887],[14412,-10460],[3507,-2546],[-2422,-4280],[-1969,-3478],[1889,-1501],[1715,-889],[126,-65],[2456,-898],[3226,-388],[6632,610],[5583,488],[8254,563],[2735,195],[4242,350],[1163,100],[6107,439],[69,5],[615,49],[0,-78],[-1,-12358],[-90,-766],[-17,-153],[-161,-1368],[62,-7906],[16,-2024],[15,-1832],[11,-9878],[-6,-1289],[-63,-13568],[218,-10193],[-7,-1464],[-15,-3392],[-52,-11988],[-4,-80],[-71,-1586],[45,-2856],[-548,-6741],[-6,-215],[-202,-8202],[11,-7174],[0,-543],[11,-6747],[0,-468],[11,-7228],[1,-543],[0,-236],[7,-4245],[1,-778],[3,-2371],[10,-6679],[1,-779],[12,-7627],[11,-7806],[0,-218],[1,-78],[12,-8012],[1,-311],[0,-254],[3,-1854],[11,-6390],[0,-322],[5,-3200],[-183,-3539],[-214,-24129],[37,-191],[14,-76],[382,-4243],[426,-4747],[620,-5035],[320,-5556],[33,-581],[-223,-11997],[2,-155],[12,-1311],[5,-6916],[-259,-939],[45,-1171],[119,-3078],[124,-4216],[857,-3932],[1330,-3323],[-1574,-1468],[-657,-1755],[-209,-6586],[51,-996],[189,-1907],[1192,-12065],[-5110,2356],[-27866,11021],[-50173,21507],[-12170,3311],[-24773,4225],[-16680,-645],[-21737,-5],[-6954,769],[-710,5493],[-34,304],[-228,982],[-575,2024],[-53,158],[-125,997],[-6,123],[-135,2924],[4,2426],[9,5448],[-10,522],[-1,87],[-124,3725],[774,3471],[2295,4444],[1707,3825],[1532,4823],[936,4922],[103,1307],[1096,14011],[119,5164],[20,2415],[827,62],[789,680],[3684,5529],[3024,4537],[1752,2629],[1699,2588],[557,847],[868,1321],[968,1474],[624,957],[2062,3165],[1575,2419],[2585,5436],[1244,5710],[352,9066],[8,3687],[9,3898],[-81,7306],[-38,3451],[127,4194],[106,3522],[205,6913],[243,7231],[291,9482],[142,4609],[117,3791],[85,2710],[13,391],[37,1166],[29,911],[6,220],[141,4458],[113,3559],[110,3470],[117,3694],[103,3290],[129,4105],[118,3772],[121,4014],[110,3632],[6250,-103],[33,4258],[30,3808],[-1,920],[28,2980],[37,4034],[23,3517],[25,3965],[29,2730],[8,779],[30,2818],[4145,122],[3431,693],[3062,618],[139,12],[3385,289],[2226,-130],[579,362],[4183,53],[69,1],[7058,-33],[3560,-3],[3206,-4],[68,0],[3686,-61],[3526,-60],[69,-1],[3776,-18],[3480,-17],[69,4],[2481,155],[4160,1297],[3110,2230],[1505,1775],[2887,4891],[383,-345],[1905,3541],[1243,2311]],[[473688,306236],[3956,-264],[13,587],[10,441],[105,-7],[20505,-1243],[251,-15],[7436,-353],[5666,-317],[1773,-100],[7400,-422],[7586,-540],[7466,-449],[1708,-111],[3487,-254],[8875,-647],[393,-28],[3945,-317],[868,-508],[2023,-95],[6501,-350],[13067,-797],[12541,-820],[-62,-4597],[-81,-3606],[-1,-92],[-66,-4240],[-49,-3661],[-59,-2624],[-136,-5311],[-88,-3709],[-102,-4273],[-265,-3760],[-276,-3910],[57,-3843],[57,-3865],[-198,-7981],[-159,-8654],[-39,-3953],[-44,-4456],[-60,-2403],[-38,-1478],[-112,-4467],[-25,-981],[-58,-2335],[-111,-4400],[-40,-2526],[-83,-5297],[-89,-1790],[-283,-5738],[93,-7894],[-204,-7600],[12,-5309],[3,-1506],[-11,-2855],[-17,-4417],[-295,-7860],[-259,-7644],[-723,-7436],[-268,-7471],[-357,-7702],[-151,-3705],[-180,-4404],[-12,-427],[-12,-452],[-730,-24603],[-642,-22329],[9192,1353],[12834,1888],[-18,-987],[-24,-1319],[-215,-15543],[61,-2157],[913,-1489],[3546,-5779],[-59347,5855],[-12243,-5814],[-2946,-970],[-3770,-1530],[-42050,-31643],[-223,-168],[-4874,-6722],[-27875,-7038],[-20899,5193],[-12906,11146],[-14106,16600],[-26611,19039],[-11370,4838],[320,2840],[591,5239],[283,2513],[1072,9505],[-427,583],[570,683],[560,3252],[519,3011],[253,1468],[424,2456],[649,556],[2401,2056],[-2249,3681],[352,2261],[198,6951],[32,1115],[80,3086],[107,4140],[105,3947],[286,11409],[122,7354],[90,4046],[92,4209],[116,6006],[-416,2051],[-95,467],[533,2737],[745,807],[-209,671],[-142,3110],[-6,2367],[-3,1167],[-9,3709],[94,3759],[84,3413],[72,3908],[66,3687],[3729,-71],[3460,-65],[7440,-165],[7448,62],[14732,-649],[3534,-155],[125,4898],[226,7926],[218,7708],[128,7868],[207,7809],[92,4892],[136,5764],[454,19211],[97,4314],[85,3739],[187,7600],[171,7928],[193,8138],[350,15880],[-155,16246],[4329,-283],[3769,-247],[3927,-221],[4037,-241],[3762,-227],[4017,-243],[3756,-221],[3540,-210],[3968,-246],[3506,-201],[5832,-364],[756,-417],[714,-57],[7489,-500]]]}
