{"type":"FeatureCollection","features":[{"type":"Feature","id":4877,"geometry":{"type":"Polygon","coordinates":[[[-123.11582126900657,49.303764133377754],[-123.12880883471624,49.310121836353339],[-123.12885763996682,49.310146239520463],[-123.12908016190636,49.310257637555551],[-123.13452823599388,49.313432933738575],[-123.13493122133224,49.313671181762402],[-123.13840264227632,49.31572317008461],[-123.14022031316703,49.316682571807128],[-123.14987179614332,49.316653294066171],[-123.15863495157633,49.316695634606518],[-123.16315496497612,49.31661828811702],[-123.16398517829646,49.297944477797792],[-123.16415841479693,49.290230454064492],[-123.16425156224393,49.284482756513825],[-123.16426400030056,49.282308571564137],[-123.1665259991812,49.282313134017066],[-123.16853576709532,49.282314772148162],[-123.17552528368788,49.282323287566115],[-123.18167718480123,49.282338083487943],[-123.18510194990216,49.282340025983643],[-123.18553477418334,49.282341551697172],[-123.18788158710417,49.282334414418244],[-123.18795914255665,49.282334219384758],[-123.19290573008962,49.2824176769454],[-123.2048147237717,49.282617565730469],[-123.20545435204934,49.282629593665312],[-123.20858269808384,49.282712757867486],[-123.21075943934713,49.282771235528728],[-123.22143880242822,49.282908980279323],[-123.22151361445789,49.282909927726259],[-123.22376969076109,49.278211345540115],[-123.22381733195256,49.277821645535589],[-123.22388115311693,49.277391605001249],[-123.22423626840157,49.276548754784478],[-123.22397553597516,49.274850585970626],[-123.22397352094816,49.274766456627461],[-123.22392818733262,49.272870353831237],[-123.22218042217946,49.271079007544323],[-123.22150209137236,49.27056395619843],[-123.22157256698013,49.268778108859635],[-123.22153893096448,49.268781641338002],[-123.22025846950666,49.268916789989333],[-123.21961422016318,49.268984791646396],[-123.21955595222099,49.268810387404237],[-123.21955590859555,49.268797615959627],[-123.21955275712949,49.268016787094844],[-123.21958396488347,49.267243908119134],[-123.21868201832315,49.267294543711671],[-123.21703375435067,49.267387091837683],[-123.21505623246398,49.267373887516477],[-123.2150721715951,49.266943209762822],[-123.21508708013019,49.266540684135364],[-123.21510233582298,49.26613368825133],[-123.215116702562,49.265749743938876],[-123.21511820427006,49.265678633161684],[-123.21512765837457,49.265613135286188],[-123.21513756792885,49.265503894765068],[-123.21514796283699,49.265389375217453],[-123.21516050278355,49.265261491923624],[-123.21520451731473,49.264813505123016],[-123.2152302356423,49.264407795765464],[-123.21525578813242,49.264005093103592],[-123.21526029592985,49.26386111793726],[-123.21527056305045,49.263453921651816],[-123.21528224328083,49.262992519299353],[-123.21530447313133,49.262096006578496],[-123.21531626547369,49.261645396529957],[-123.21532190786426,49.261429594700139],[-123.21532784241539,49.261202189455048],[-123.21537107698656,49.26029899895083],[-123.21537746984475,49.259855455863686],[-123.21538417894374,49.259394200855503],[-123.21540377444218,49.258518298488184],[-123.21539001139917,49.258517940284243],[-123.2123508558594,49.258442204947954],[-123.21233711564189,49.258441925923293],[-123.20933960270366,49.258380477096317],[-123.20932586252668,49.25838019764597],[-123.20630089911616,49.258318993463483],[-123.20628713873315,49.258318691978118],[-123.20324471928012,49.258273015743534],[-123.20323094684861,49.258272806263172],[-123.20323789849638,49.25818776474658],[-123.20324183116871,49.2581388958302],[-123.20325174144925,49.257974330752972],[-123.20322257608335,49.257831552325726],[-123.20303749898001,49.256925771028868],[-123.20293903919666,49.256700021272344],[-123.20102575830731,49.256735587349368],[-123.19803674932417,49.256614873651223],[-123.19656064957505,49.256528903002184],[-123.19655728735275,49.25609280428327],[-123.19655366138956,49.255621689747251],[-123.19654845579863,49.25520629071783],[-123.19649644085638,49.253939903918734],[-123.19668768446812,49.252912365263491],[-123.19680466285335,49.251974307644524],[-123.19680676383348,49.251965776546136],[-123.19677645036379,49.250246365797537],[-123.19884763303952,49.250155388724245],[-123.19913164009357,49.250069987261405],[-123.20002655684871,49.250059620106313],[-123.20057046037881,49.250053305516673],[-123.20106963910862,49.249964172076311],[-123.20402867515229,49.24943587182171],[-123.20433414595819,49.249356478749405],[-123.20462225535786,49.249133372098107],[-123.20318905743528,49.248418007011843],[-123.2012307558777,49.24744039915516],[-123.20021590994166,49.246942744588324],[-123.20000476941306,49.246839203668962],[-123.19991017612077,49.246792827191307],[-123.19979363058651,49.246735661130771],[-123.19906342112313,49.246377592589319],[-123.19892864710232,49.246311509913291],[-123.19835868138627,49.246288847035956],[-123.19676823157357,49.246225592676709],[-123.19677901938121,49.245784042179878],[-123.19679153417385,49.245271406291145],[-123.19678514911161,49.244830171243422],[-123.19677773055977,49.244318996245717],[-123.19678318765602,49.243886063049565],[-123.19678964861738,49.24337088789823],[-123.19679507770661,49.242932537938366],[-123.19679550256025,49.242897222244373],[-123.19680135984443,49.242427204801075],[-123.19680774990576,49.241970074077912],[-123.19681463430776,49.241479997079495],[-123.19681522457802,49.241034390865295],[-123.19681584666121,49.240550485698776],[-123.19682612104987,49.239584290974456],[-123.19683181896221,49.239118273830094],[-123.19683756920317,49.238645088783322],[-123.19834487794922,49.238596062111824],[-123.19841347029349,49.236495491947643],[-123.19685115600008,49.23648639493458],[-123.19684713618344,49.235644099630221],[-123.19684885431633,49.235524283608164],[-123.196921793136,49.235317365567695],[-123.1969400402383,49.235265515369527],[-123.19709664451318,49.235057909327395],[-123.19709555260579,49.234925423617923],[-123.19707909502581,49.232941961294316],[-123.19705294561136,49.232917504245044],[-123.1969133342259,49.232682390922967],[-123.19692919420872,49.232462383289736],[-123.19696370602273,49.231982982492369],[-123.19699322271512,49.231573070046885],[-123.19700619704975,49.231393152503067],[-123.19701135205659,49.231321360491769],[-123.19701393017409,49.231285464300036],[-123.19705866062969,49.230664440303038],[-123.19706462627046,49.230581565950757],[-123.19648895631188,49.230343683192132],[-123.19485780276975,49.229812576211252],[-123.19145162626496,49.228005794709624],[-123.19113422788409,49.227366048032749],[-123.19095924225809,49.226539285374848],[-123.19111250468234,49.225560111780808],[-123.19136383533916,49.220818966699916],[-123.19135329181327,49.220706740337889],[-123.19132184058905,49.220386485748747],[-123.19131141828115,49.219445303811128],[-123.18037035823804,49.215704092014654],[-123.17220311972666,49.214966795428715],[-123.1701472063496,49.214700555436146],[-123.16825273826899,49.214465656375545],[-123.1635589740322,49.213593236007888],[-123.15694020921741,49.210483928944221],[-123.15563916055865,49.209550480790021],[-123.15529649080605,49.209304613503988],[-123.15356554469507,49.2074066003875],[-123.15074282574786,49.205353263934541],[-123.14743837218522,49.204546207804015],[-123.14122094218186,49.201992723107004],[-123.14086780063782,49.201919085832344],[-123.14024263889513,49.200202917072893],[-123.13664495726618,49.199140489171789],[-123.13600362612056,49.199081091604427],[-123.13587186615148,49.199061122521563],[-123.13243831749134,49.198540501801901],[-123.13082718854037,49.198777428117843],[-123.13039608313167,49.198851708837559],[-123.12682750310451,49.199353693844138],[-123.12656041388368,49.19956519394929],[-123.12592510770403,49.200068159069104],[-123.12584656314421,49.200130323914152],[-123.12192259226306,49.201858329562214],[-123.11733752405168,49.203805909588461],[-123.11704316608697,49.203880216084073],[-123.11674528551221,49.20395179179912],[-123.11657880593121,49.2039827485697],[-123.11614841104588,49.204062785515745],[-123.11598569423404,49.204094755431264],[-123.11572622985125,49.204145742616745],[-123.11512135349344,49.204316045374249],[-123.11352147985967,49.204766565644938],[-123.10914396173688,49.204539843595988],[-123.10186177537334,49.204102286719476],[-123.10157586432832,49.20409010250382],[-123.10144447686316,49.204086516612541],[-123.10005664393067,49.204038865051551],[-123.0979164505775,49.204190064239704],[-123.09783484909313,49.204202063599844],[-123.09360746011473,49.204823137102011],[-123.09346749944046,49.204837120116274],[-123.09175839637798,49.205245223214277],[-123.09127501547643,49.205305000357022],[-123.08865746830509,49.20579299863747],[-123.08335069507277,49.206798248168177],[-123.08065823744549,49.207404285512375],[-123.07741393788336,49.208075861558314],[-123.07723051609518,49.208113803760007],[-123.07627409749276,49.20828782538873],[-123.07447870721971,49.208336395995374],[-123.07314741574598,49.208140388710994],[-123.07216388337007,49.2079055303359],[-123.07128447136975,49.207650257953425],[-123.0710038331994,49.207556118881811],[-123.07015469899854,49.207204693681078],[-123.06925555990728,49.206832611557424],[-123.06853678067192,49.206578508722714],[-123.06831332213574,49.20648409011747],[-123.06754249792134,49.206152854425497],[-123.06689779837696,49.205985832121961],[-123.06661959582921,49.20594414651211],[-123.06323835876675,49.205359669486199],[-123.0594047188811,49.204761445080699],[-123.05878446178026,49.204662024469535],[-123.05645989808389,49.204665293806691],[-123.05637085840534,49.204659192066579],[-123.05506026025749,49.204576373004656],[-123.05068487869048,49.204576971766798],[-123.04754033810377,49.20464928826317],[-123.04732744037774,49.204651489181686],[-123.04234103632231,49.204163276863696],[-123.04216355393487,49.204138280773229],[-123.03989138131691,49.203780731753021],[-123.0297924281342,49.201295755342969],[-123.02418347811032,49.200022392271151],[-123.02315491572915,49.19975008733018],[-123.02343276811158,49.201364523841676],[-123.02344300384736,49.201479622018503],[-123.02340109084962,49.202240604487798],[-123.0232687335008,49.202443311741455],[-123.02295193572705,49.202612906437949],[-123.02321957894266,49.20299686527725],[-123.02339212358295,49.203451170757944],[-123.0234171817436,49.203938326921573],[-123.02344103758212,49.204293943917705],[-123.02345020628277,49.204429316650518],[-123.02339798274198,49.204537769715728],[-123.02339891299512,49.205336879914675],[-123.0234014942676,49.20548836491885],[-123.02340179063586,49.205506326594161],[-123.02335691792489,49.206892414971144],[-123.02336363909396,49.206959530457937],[-123.02342801588294,49.207601518465474],[-123.0235527151509,49.208183304202166],[-123.02363855059797,49.208731757986733],[-123.02371531840137,49.209222016043668],[-123.02371826861965,49.209230833851542],[-123.02372573507046,49.209252905509267],[-123.02368253965174,49.212040835004736],[-123.02364571133525,49.212449713983489],[-123.02364673550819,49.212819525082843],[-123.02364683763166,49.212856757129728],[-123.02364891993847,49.213594999457463],[-123.0236495167706,49.213809248087074],[-123.0236496018187,49.21383858986021],[-123.02364970633558,49.213874567708757],[-123.0236522964335,49.214800227812631],[-123.0236523219249,49.214809223000735],[-123.02365236682881,49.214834470237577],[-123.02365471106933,49.215736442748806],[-123.02365699652216,49.216617633427632],[-123.023657241839,49.216707614758256],[-123.0236592253096,49.217479412433335],[-123.02365994215714,49.217753268390275],[-123.02366015203746,49.217843262037817],[-123.02366143606903,49.218333682008954],[-123.02366150926082,49.218360988314586],[-123.0236616814056,49.218423663903437],[-123.02366383197783,49.219258900954152],[-123.02366397278197,49.219312904584847],[-123.02366602216861,49.220092494647027],[-123.02366616405067,49.220155297386057],[-123.02366830443468,49.220984133477643],[-123.02362760941003,49.221931840694531],[-123.02362651458355,49.221956729179709],[-123.02351622774114,49.222735609395066],[-123.02352523084288,49.223065612565172],[-123.02351085243879,49.223248847913645],[-123.02351013057216,49.223258016463319],[-123.02349958995399,49.224643215055572],[-123.0234965612412,49.225035117386653],[-123.02349521465547,49.225204304259222],[-123.02353911113924,49.226382028162845],[-123.02352641731193,49.227949649694366],[-123.02352521119911,49.228098624951144],[-123.02352750433059,49.229240012340874],[-123.02353040119661,49.229451633620236],[-123.0235336087154,49.229685496371708],[-123.02354610749359,49.230599007997192],[-123.02351380543365,49.230757064917462],[-123.02351020787924,49.23077472624756],[-123.02349210770608,49.230863220832219],[-123.02349193058637,49.232291083276806],[-123.02349190585522,49.232300125383368],[-123.02347151034405,49.234330914553787],[-123.02346922505893,49.23450693297616],[-123.02346779858628,49.234614870536198],[-123.02346626163164,49.23473191062623],[-123.02346591285193,49.234757442408842],[-123.02346365746493,49.234929837042337],[-123.02344669273597,49.236217413439611],[-123.02344223309015,49.236993815498153],[-123.02344490923502,49.237765923194665],[-123.02346221878327,49.239572519836415],[-123.02346415862354,49.239585014337386],[-123.02356620436785,49.240242008883769],[-123.02356996335443,49.240386431127007],[-123.02357029363947,49.240399079294917],[-123.02358519865737,49.240973111074297],[-123.02358595082912,49.241496424966975],[-123.02358602024373,49.241535915778265],[-123.02358670888746,49.24205412400984],[-123.02358673562475,49.242063119708867],[-123.02358055628908,49.242566882934405],[-123.02358042757476,49.242575962458574],[-123.02357530347489,49.24299062268166],[-123.02357341701747,49.244433716684071],[-123.023571885316,49.244833663642929],[-123.02357181151575,49.244849804944963],[-123.02357163583102,49.244903806825157],[-123.02356985946574,49.245361771784978],[-123.02356673811212,49.246186516973346],[-123.02355922043833,49.247052927694725],[-123.02355915856434,49.247061925037542],[-123.02355461631471,49.247917507397496],[-123.02354771312024,49.248837912013833],[-123.02354768839135,49.248846954666021],[-123.02354200843091,49.249741319438712],[-123.02353362922514,49.250663526892055],[-123.02353357084448,49.250672581979806],[-123.02353043092322,49.251506615471882],[-123.02352833377745,49.252416320276055],[-123.02352501400996,49.253141751761341],[-123.02352432896497,49.253288867158034],[-123.02352422504045,49.253316123138831],[-123.02352203833628,49.254206922429788],[-123.02351992551984,49.254731115743034],[-123.0235171126488,49.255310312617553],[-123.0235164988936,49.255529008417945],[-123.02351391099246,49.256431729243189],[-123.02351103100921,49.257333330142266],[-123.02349812276707,49.258218412676122],[-123.02349251827789,49.259119133597302],[-123.02353641516999,49.259828920235172],[-123.02353973334714,49.259882406096423],[-123.02354623790781,49.260102409638471],[-123.02355922068661,49.26079911963685],[-123.02356153287938,49.261105422301959],[-123.0235537306384,49.261271025856978],[-123.0235429355958,49.261546319554469],[-123.02352704802986,49.262311336235584],[-123.02352399557012,49.262458612854161],[-123.02351142650434,49.263064604259917],[-123.02349891969747,49.263666464930957],[-123.02349551970649,49.265560725328982],[-123.02349532900239,49.265649912881429],[-123.02347343139624,49.266632932455622],[-123.02346705376351,49.268457694232119],[-123.02346702900546,49.268466737530588],[-123.02347461560531,49.269397512413292],[-123.02347682611367,49.269534417745142],[-123.02348301013659,49.270294026970511],[-123.02347262048478,49.271205316866201],[-123.02345093660627,49.272121715115972],[-123.0234470211047,49.272997119165396],[-123.02344403166803,49.273192526301656],[-123.02343913434179,49.273911215977229],[-123.02343941452617,49.274122007946836],[-123.02343251551042,49.274828021446169],[-123.02343312465148,49.274946894036908],[-123.0234371259085,49.275762218013149],[-123.02342780139581,49.276208294693191],[-123.02342381950831,49.276398715997161],[-123.02342504409059,49.276658114028137],[-123.02341912073145,49.277563319432055],[-123.02341986881811,49.277737461768957],[-123.02342203527617,49.278246129605037],[-123.02341383692224,49.278481011683567],[-123.02341784758927,49.279060326262901],[-123.02341353240759,49.279342118965012],[-123.02341076609646,49.279807073481514],[-123.02340824612126,49.280238221866767],[-123.02340824026139,49.280247287581894],[-123.02340797268363,49.280688580165233],[-123.0234077249232,49.281145313254541],[-123.02340762870662,49.281154323276823],[-123.02339745234083,49.282054819328835],[-123.02339714800063,49.282063901536425],[-123.02338252241262,49.282514694051713],[-123.02336805301897,49.282961905185836],[-123.02336797505103,49.282970938494927],[-123.02336464451569,49.283405143057941],[-123.02336113227969,49.283862523160998],[-123.02336107381491,49.283871579343163],[-123.02335803917657,49.284313638487369],[-123.0233551036592,49.284740566967102],[-123.02335504336044,49.28474962274786],[-123.02334811193009,49.285222159256897],[-123.02334162260163,49.285665337763035],[-123.02332427998417,49.286157682410305],[-123.02330853574009,49.286603886869422],[-123.02330822842717,49.286612912407037],[-123.02330364665686,49.287057176539058],[-123.02329902596124,49.287506206364228],[-123.02329672679342,49.28791172791221],[-123.02329404452462,49.288375325920875],[-123.0232907194124,49.288666546251413],[-123.02329008509102,49.288720541778432],[-123.02328905875274,49.28881128216603],[-123.02328362331158,49.289287412279421],[-123.02326801889082,49.289744618851593],[-123.02326682118705,49.290190417740114],[-123.02326153382555,49.290701007871704],[-123.0232541405253,49.291095311683726],[-123.02324654389548,49.291536816299946],[-123.02324469695058,49.291643552686864],[-123.02323905688444,49.291972278751224],[-123.02317511145958,49.292320115055404],[-123.02316685493628,49.292659518006786],[-123.0231402001199,49.29279382194639],[-123.0230923455496,49.292999699896754],[-123.02307692384362,49.293063107858487],[-123.02309704022298,49.293296172261748],[-123.0230984101912,49.293312394584078],[-123.02310053268268,49.293406234694338],[-123.02311070967728,49.294440534194294],[-123.0237133562371,49.294468972174265],[-123.02383260730338,49.294476731861778],[-123.02430858420692,49.294507601437878],[-123.02453819915907,49.294515550558678],[-123.02615920757042,49.29457170293005],[-123.02634122221767,49.294584560974961],[-123.03875028481643,49.295459870920553],[-123.03902449883266,49.295469833746616],[-123.04917547533077,49.295893207909195],[-123.05171111178892,49.295989778030716],[-123.05237937681916,49.29601170693828],[-123.05449685498527,49.296074888033672],[-123.05581584853911,49.296118237522393],[-123.06049561951443,49.296270523736403],[-123.06102417708652,49.29628960430626],[-123.06500964829438,49.296431238579835],[-123.06658098559116,49.296503585377231],[-123.07049966103543,49.29668090675473],[-123.0775301363,49.296974010431754],[-123.0798976431311,49.297035093516882],[-123.08162033428837,49.297082989138204],[-123.08343580342556,49.297133453797116],[-123.08570826142878,49.297198429788139],[-123.08936666552718,49.297285554369381],[-123.09036966281613,49.297320464915757],[-123.09230172914319,49.297431936885829],[-123.09806300899534,49.297692404864286],[-123.10248728614721,49.297787992535049],[-123.10438760821947,49.297865574848764],[-123.10699788292376,49.299237190295372],[-123.10878394354894,49.300243783487616],[-123.10947319049841,49.300585195810704],[-123.11582126900657,49.303764133377754]]]},"properties":{"OBJECTID":4877,"CSDUID":"5915022","CSDNAME":"Vancouver","CSDTYPE":"CY","PRUID":"59","PRNAME":"British Columbia / Colombie-Britannique","CDUID":"5915","CDNAME":"Greater Vancouver","CDTYPE":"RD","CCSUID":"5915022","CCSNAME":"Vancouver","ERUID":"5920","ERNAME":"Lower Mainland--Southwest / Lower Mainland--Sud-ouest","SACCODE":"933","SACTYPE":"1","CMAUID":"933","CMAPUID":"59933","CMANAME":"Vancouver","CMATYPE":"B","SHAPE_Length":53147.696522277271,"SHAPE_Area":133182454.95694929}}]}